MAKERSAT 0              
1 43016U 17073D   26105.16364412  .00010455  00000+0  30226-3 0  9993
2 43016  97.4725 347.2939 0114472 136.2252 224.8134 15.29435613456825
SIRION PATHFINDER-2     
1 43759U 18099B   26105.07411690  .00003018  00000+0  16980-3 0  9995
2 43759  97.4321 155.6388 0009768 150.1915 209.9875 15.13970933403079
CORVUS BC4              
1 43767U 18099K   26105.06256586  .00002714  00000+0  16176-3 0  9993
2 43767  97.4137 149.8936 0007611 208.8247 151.2565 15.11988333402863
M2 PATHFINDER           
1 45727U 20037E   26105.06439082  .00001700  00000+0  12619-3 0  9992
2 45727  97.8173 295.5900 0011752  13.7020 346.4523 15.04405626316001
NETSAT-4                
1 46504U 20068U   26105.27609794  .00008336  00000+0  19898-3 0  9990
2 46504  97.8628 108.5641 0006123 164.7385 195.4047 15.41808473306079
NETSAT-3                
1 46505U 20068V   26104.97257583  .00010409  00000+0  25840-3 0  9990
2 46505  97.8675 106.5390 0005255 180.2659 179.8584 15.40543942305946
NETSAT-1                
1 46506U 20068W   26105.05124314  .00006833  00000+0  21612-3 0  9995
2 46506  97.8753 101.6710 0003944 205.8909 154.2135 15.33137588305622
NETSAT-2                
1 46507U 20068X   26105.26143011  .00011003  00000+0  24854-3 0  9990
2 46507  97.8644 108.2424 0003565 181.8359 178.2875 15.43383299306023
GREENCUBE (IO-117)      
1 53109U 22080E   26104.99591879 -.00000003  00000+0  00000+0 0  9992
2 53109  70.1494 320.2325 0008873 304.1093  55.8724  6.42583330 88009
SITRO-AIS 5 (KATYS)     
1 57176U 23091L   26105.29722566  .00005540  00000+0  20496-3 0  9991
2 57176  97.5115 168.6529 0010446 330.4712  29.5936 15.28059468154730
SITRO-AIS 6 (CHIRKIN)   
1 57192U 23091AC  26105.26921327  .00003226  00000+0  13227-3 0  9995
2 57192  97.5121 168.0611 0011107 335.1676  24.9026 15.24954993154694
SITRO-AIS 8 (ANOKHIN)   
1 57193U 23091AD  26105.28829719  .00006477  00000+0  22206-3 0  9998
2 57193  97.5110 169.9899 0009531 326.7779  33.2862 15.30498071154822
SITRO-AIS 7 (FARTUSHNIY)
1 57194U 23091AE  26105.26015268  .00002963  00000+0  12274-3 0  9993
2 57194  97.5120 167.9075 0011024 336.2087  23.8639 15.24675233154687
SITRO-AIS 10 (BURDAEV)  
1 57199U 23091AK  26105.24501498  .00009427  00000+0  26848-3 0  9995
2 57199  97.5127 174.3874 0005351 299.2424  60.8284 15.36312930155095
SITRO-AIS 9 (SHCHUKIN)  
1 57201U 23091AM  26105.25275711  .00009056  00000+0  26156-3 0  9996
2 57201  97.5125 174.1715 0005621 299.0857  60.9823 15.35884648155085
SITRO-AIS 12 (SMIRENNIY)
1 57204U 23091AQ  26105.25494651  .00009247  00000+0  26473-3 0  9999
2 57204  97.5136 174.6024 0005252 291.5929  68.4755 15.36155346155102
SITRO-AIS 11 (SHEFFER)  
1 57208U 23091AU  26105.28464862  .00009151  00000+0  25889-3 0  9991
2 57208  97.5135 174.8425 0005153 291.7479  68.3216 15.36533143155122
SITRO-AIS 25            
1 59066U 24039R   26105.31939584  .00003470  00000+0  27378-3 0  9993
2 59066  95.3927 191.9035 0145927 187.0306 172.8876 14.92989546115344
SITRO-AIS 26            
1 59067U 24039S   26105.31243932  .00003187  00000+0  25275-3 0  9998
2 59067  95.3928 191.8091 0146226 187.5838 172.3178 14.92796087115330
SITRO-AIS 27            
1 59068U 24039T   26105.30000118  .00002879  00000+0  22661-3 0  9998
2 59068  95.3928 192.0436 0145357 186.4004 173.5371 14.93200142115357
SITRO-AIS 28            
1 59071U 24039U   26105.27890671  .00002410  00000+0  19003-3 0  9996
2 59071  95.3932 192.0729 0145210 186.3068 173.6335 14.93237240115358
GRBBETA                 
1 60237U 24128C   26105.22563892  .00001810  00000+0  13496-3 0  9991
2 60237  61.9889  77.0782 0048053 121.3881 239.1926 15.06135976 96781
OOV-CUBE (TUBSAT-30)    
1 60240U 24128F   26105.16930195  .00001158  00000+0  10046-3 0  9995
2 60240  61.9932  85.2594 0051512 119.9802 240.6417 15.02462854 96647
ROBUSTA-3A (MEDITERRAN*)
1 60243U 24128J   26105.27429826  .00003505  00000+0  21830-3 0  9995
2 60243  61.9858  70.5552 0048753 115.1431 245.4733 15.10697032 96918
LASARSAT                
1 62391U 24247Q   26105.10602580  .00020118  00000+0  45848-3 0  9999
2 62391  44.9744 255.6385 0006105 293.9646  66.0603 15.42642686 73566
CROCUBE                 
1 62394U 24247T   26104.45869782  .00020359  00000+0  44287-3 0  9991
2 62394  44.9722 257.4817 0005699 289.1059  70.9212 15.44022856 73481
FORESAIL-1 PRIME        
1 66778U 25276DS  26104.92945470  .00002576  00000+0  12955-3 0  9993
2 66778  97.4228 179.3782 0001858   9.4974 350.6295 15.18125849 20804
KNACKSAT-2              
1 67683U 98067XZ  26104.43290565  .00023109  00000+0  34523-3 0  9991
2 67683  51.6301 253.8399 0011305 320.3591  39.6572 15.54855751 10346
